{
  "type": "FeatureCollection",
  "features": [
    {
      "type": "Feature",
      "properties": {
        "norad_id": 33886,
        "name": "IRIDIUM 33 DEB",
        "group": "iridium-33-debris",
        "lat": 66.27078102819405,
        "lon": 78.17051267653693,
        "alt_km": 773.3690714670247,
        "timestamp": "2025-12-06T09:34:17.299185+00:00",
        "meta_object_name": "IRIDIUM 33 DEB",
        "meta_object_id": "1997-051BF",
        "meta_epoch": "2025-12-06T00:02:04.981920",
        "meta_mean_motion": 14.36038974,
        "meta_eccentricity": 0.00120797,
        "meta_inclination": 86.3831,
        "meta_ra_of_asc_node": 70.0646,
        "meta_arg_of_pericenter": 267.6196,
        "meta_mean_anomaly": 265.9363,
        "meta_ephemeris_type": 0,
        "meta_classification_type": "U",
        "meta_norad_cat_id": 33886,
        "meta_element_set_no": 999,
        "meta_rev_at_epoch": 87955,
        "meta_bstar": 0.0003752743,
        "meta_mean_motion_dot": 1.111e-05,
        "meta_mean_motion_ddot": 0,
        "tle_line1": "1 33886U 97051BF  25340.00144655  .00001111  00000+0  37527-3 0  9999",
        "tle_line2": "2 33886  86.3831  70.0646 0012079 267.6196 265.9363 14.36038974879551"
      },
      "geometry": {
        "type": "Point",
        "coordinates": [
          78.17051267653693,
          66.27078102819405
        ]
      }
    },
    {
      "type": "Feature",
      "properties": {
        "norad_id": 33887,
        "name": "IRIDIUM 33 DEB",
        "group": "iridium-33-debris",
        "lat": -23.928207834934092,
        "lon": 4.481840546709406,
        "alt_km": 772.7032067103983,
        "timestamp": "2025-12-06T09:34:17.299196+00:00",
        "meta_object_name": "IRIDIUM 33 DEB",
        "meta_object_id": "1997-051BG",
        "meta_epoch": "2025-12-05T14:14:11.083776",
        "meta_mean_motion": 14.37211356,
        "meta_eccentricity": 0.00040679,
        "meta_inclination": 86.3049,
        "meta_ra_of_asc_node": 6.472,
        "meta_arg_of_pericenter": 260.7094,
        "meta_mean_anomaly": 229.7298,
        "meta_ephemeris_type": 0,
        "meta_classification_type": "U",
        "meta_norad_cat_id": 33887,
        "meta_element_set_no": 999,
        "meta_rev_at_epoch": 88062,
        "meta_bstar": 0.00026275463,
        "meta_mean_motion_dot": 8.01e-06,
        "meta_mean_motion_ddot": 0,
        "tle_line1": "1 33887U 97051BG  25339.59318384  .00000801  00000+0  26275-3 0  9997",
        "tle_line2": "2 33887  86.3049   6.4720 0004067 260.7094 229.7298 14.37211356880621"
      },
      "geometry": {
        "type": "Point",
        "coordinates": [
          4.481840546709406,
          -23.928207834934092
        ]
      }
    },
    {
      "type": "Feature",
      "properties": {
        "norad_id": 33953,
        "name": "IRIDIUM 33 DEB",
        "group": "iridium-33-debris",
        "lat": 39.76042117308512,
        "lon": -126.48352660204742,
        "alt_km": 693.1695614676892,
        "timestamp": "2025-12-06T09:34:17.299206+00:00",
        "meta_object_name": "IRIDIUM 33 DEB",
        "meta_object_id": "1997-051BN",
        "meta_epoch": "2025-12-05T23:50:27.951648",
        "meta_mean_motion": 14.55218556,
        "meta_eccentricity": 0.00185309,
        "meta_inclination": 86.3851,
        "meta_ra_of_asc_node": 56.7073,
        "meta_arg_of_pericenter": 123.3499,
        "meta_mean_anomaly": 54.0321,
        "meta_ephemeris_type": 0,
        "meta_classification_type": "U",
        "meta_norad_cat_id": 33953,
        "meta_element_set_no": 999,
        "meta_rev_at_epoch": 88205,
        "meta_bstar": 0.0020564879,
        "meta_mean_motion_dot": 8.94e-05,
        "meta_mean_motion_ddot": 0,
        "tle_line1": "1 33953U 97051BN  25339.99337907  .00008940  00000+0  20565-2 0  9994",
        "tle_line2": "2 33953  86.3851  56.7073 0018530 123.3499  54.0321 14.55218556882052"
      },
      "geometry": {
        "type": "Point",
        "coordinates": [
          -126.48352660204742,
          39.76042117308512
        ]
      }
    },
    {
      "type": "Feature",
      "properties": {
        "norad_id": 33960,
        "name": "IRIDIUM 33 DEB",
        "group": "iridium-33-debris",
        "lat": -11.86684352515938,
        "lon": -68.28705342125326,
        "alt_km": 618.3503345621002,
        "timestamp": "2025-12-06T09:34:17.299217+00:00",
        "meta_object_name": "IRIDIUM 33 DEB",
        "meta_object_id": "1997-051BV",
        "meta_epoch": "2025-12-05T20:56:06.827136",
        "meta_mean_motion": 14.84637403,
        "meta_eccentricity": 0.00073215,
        "meta_inclination": 86.2534,
        "meta_ra_of_asc_node": 292.7499,
        "meta_arg_of_pericenter": 71.7421,
        "meta_mean_anomaly": 344.3493,
        "meta_ephemeris_type": 0,
        "meta_classification_type": "U",
        "meta_norad_cat_id": 33960,
        "meta_element_set_no": 999,
        "meta_rev_at_epoch": 88765,
        "meta_bstar": 0.005328277,
        "meta_mean_motion_dot": 0.00045322,
        "meta_mean_motion_ddot": 0,
        "tle_line1": "1 33960U 97051BV  25339.87230124  .00045322  00000+0  53283-2 0  9990",
        "tle_line2": "2 33960  86.2534 292.7499 0007321  71.7421 344.3493 14.84637403887652"
      },
      "geometry": {
        "type": "Point",
        "coordinates": [
          -68.28705342125326,
          -11.86684352515938
        ]
      }
    },
    {
      "type": "Feature",
      "properties": {
        "norad_id": 33966,
        "name": "IRIDIUM 33 DEB",
        "group": "iridium-33-debris",
        "lat": 35.803724567491805,
        "lon": 51.35645877663307,
        "alt_km": 729.4458658608964,
        "timestamp": "2025-12-06T09:34:17.299227+00:00",
        "meta_object_name": "IRIDIUM 33 DEB",
        "meta_object_id": "1997-051CB",
        "meta_epoch": "2025-12-05T22:37:28.322688",
        "meta_mean_motion": 14.49549989,
        "meta_eccentricity": 0.00066426,
        "meta_inclination": 86.3931,
        "meta_ra_of_asc_node": 48.9443,
        "meta_arg_of_pericenter": 212.4667,
        "meta_mean_anomaly": 324.8201,
        "meta_ephemeris_type": 0,
        "meta_classification_type": "U",
        "meta_norad_cat_id": 33966,
        "meta_element_set_no": 999,
        "meta_rev_at_epoch": 88343,
        "meta_bstar": 0.0010602541,
        "meta_mean_motion_dot": 4.086e-05,
        "meta_mean_motion_ddot": 0,
        "tle_line1": "1 33966U 97051CB  25339.94268892  .00004086  00000+0  10603-2 0  9998",
        "tle_line2": "2 33966  86.3931  48.9443 0006642 212.4667 324.8201 14.49549989883435"
      },
      "geometry": {
        "type": "Point",
        "coordinates": [
          51.35645877663307,
          35.803724567491805
        ]
      }
    },
    {
      "type": "Feature",
      "properties": {
        "norad_id": 34071,
        "name": "IRIDIUM 33 DEB",
        "group": "iridium-33-debris",
        "lat": 74.24864205847035,
        "lon": -172.5098961681197,
        "alt_km": 714.0713069938784,
        "timestamp": "2025-12-06T09:34:17.299237+00:00",
        "meta_object_name": "IRIDIUM 33 DEB",
        "meta_object_id": "1997-051CE",
        "meta_epoch": "2025-12-05T21:29:21.633792",
        "meta_mean_motion": 14.49417902,
        "meta_eccentricity": 0.00096365,
        "meta_inclination": 86.346,
        "meta_ra_of_asc_node": 20.8035,
        "meta_arg_of_pericenter": 126.1307,
        "meta_mean_anomaly": 234.0791,
        "meta_ephemeris_type": 0,
        "meta_classification_type": "U",
        "meta_norad_cat_id": 34071,
        "meta_element_set_no": 999,
        "meta_rev_at_epoch": 88235,
        "meta_bstar": 0.0011002189,
        "meta_mean_motion_dot": 4.229e-05,
        "meta_mean_motion_ddot": 0,
        "tle_line1": "1 34071U 97051CE  25339.89538928  .00004229  00000+0  11002-2 0  9993",
        "tle_line2": "2 34071  86.3460  20.8035 0009636 126.1307 234.0791 14.49417902882359"
      },
      "geometry": {
        "type": "Point",
        "coordinates": [
          -172.5098961681197,
          74.24864205847035
        ]
      }
    },
    {
      "type": "Feature",
      "properties": {
        "norad_id": 34077,
        "name": "IRIDIUM 33 DEB",
        "group": "iridium-33-debris",
        "lat": -41.63705668118207,
        "lon": 51.08040425570637,
        "alt_km": 686.177169315044,
        "timestamp": "2025-12-06T09:34:17.299248+00:00",
        "meta_object_name": "IRIDIUM 33 DEB",
        "meta_object_id": "1997-051CL",
        "meta_epoch": "2025-12-05T23:05:18.140064",
        "meta_mean_motion": 14.64674257,
        "meta_eccentricity": 0.00107697,
        "meta_inclination": 86.387,
        "meta_ra_of_asc_node": 54.4927,
        "meta_arg_of_pericenter": 60.5713,
        "meta_mean_anomaly": 116.2459,
        "meta_ephemeris_type": 0,
        "meta_classification_type": "U",
        "meta_norad_cat_id": 34077,
        "meta_element_set_no": 999,
        "meta_rev_at_epoch": 88233,
        "meta_bstar": 0.0027478125,
        "meta_mean_motion_dot": 0.00014664,
        "meta_mean_motion_ddot": 0,
        "tle_line1": "1 34077U 97051CL  25339.96201551  .00014664  00000+0  27478-2 0  9994",
        "tle_line2": "2 34077  86.3870  54.4927 0010769  60.5713 116.2459 14.64674257882339"
      },
      "geometry": {
        "type": "Point",
        "coordinates": [
          51.08040425570637,
          -41.63705668118207
        ]
      }
    }
  ]
}